#dP2021  5 16  0  0  0.00000000      97 __u+U IGS14 FIT  IAC
## 2158      0.00000000   900.00000000 59350 0.0000000000000
+  123   C01C02C03C04C05C06C07C08C09C10C11C12C13C14C16C19C20
+        C21C22C23C24C25C26C27C28C29C30C32C33C34C35C36C37C38
+        C39C40C41C42C43C44C45C46C60E01E02E03E04E05E07E08E09
+        E11E12E13E14E15E18E19E21E24E25E26E27E30E31E33E36G01
+        G02G03G04G05G06G07G08G09G10G12G13G14G15G16G17G18G19
+        G20G21G22G23G24G25G26G27G28G29G30G31G32J01J02J03J07
+        R01R02R03R04R05R07R08R09R11R12R13R14R15R16R17R18R19
+        R20R21R22R24  0  0  0  0  0  0  0  0  0  0  0  0  0
++        13 12 13 13 13  9  9  9  9  8  8  8  9  8  9  7  7
++         7  7  7  7  7  7  7  7  7  7  7  7  7  7  7  7  8
++         8  8  7  8  8  8  7  7 14  4  4  4  4  4  4  4  4
++         4  4  4  5  4  4  4  4  4  4  4  4  4  4  4  4  4
++         3  3  3  3  3  3  3  3  3  3  3  3  3  3  3  3  4
++         3  3  4  3  3  3  3  3  4  3  3  3  3  8  8  8 13
++         7  5  5  5  6  5  5  6  7  5  7  5  5  7  5  6  7
++         7  5  7  5  0  0  0  0  0  0  0  0  0  0  0  0  0
%c M  cc GPS ccc cccc cccc cccc cccc ccccc ccccc ccccc ccccc
%c cc cc ccc ccc cccc cccc cccc cccc ccccc ccccc ccccc ccccc
%f  1.2500000  1.025000000  0.00000000000  0.000000000000000
%f  0.0000000  0.000000000  0.00000000000  0.000000000000000
%i    0    0    0    0      0      0      0      0         0
%i    0    0    0    0      0      0      0      0         0
/* INFORMATION & ANALYSIS CENTER (IAC)            FINAL DATA
/* S/V CLOCKS ARE ALIGNED TO GNSS TIME                      
/* G:C1WC2W R:C1PC2P E:C1XC5X C:C2IC6I J:C1CC2S             
/* PCV:IGS14_2148 OL/AL:FES2004  NONE     YN ORB:CoN CLK:CoN
*  2021 05 16 15  0  0.00000000
PC01 -34356.363114  24417.163852   -235.345810   -461.680184
PC02   4348.599759  41953.304297   1364.674572    673.832969
PC03 -14865.129493  39477.379666    693.782164   -297.219851
PC04 -39619.136747  14417.267420   -344.725407    -19.765743
PC05  21865.577854  36062.348873   1084.413359   -135.314950
PC06 -10006.642019  35247.899196  21765.359050    391.507356
PC07 -17280.885670  21870.189233 -31484.556008   -228.379905
PC08 -24711.293185  31512.381811  12709.864731   -890.420998
PC09   -557.064137  41688.588694   8012.183118    519.483219
PC10    160.510586  26939.132064 -32180.960879    -42.011344
PC11  -2423.324009  27176.022461  -5711.413624    344.296148
PC12 -12201.970430  15227.371916 -19914.371322    881.600618
PC13 -13459.501047  32410.265616  23293.499689    262.991111
PC14   -756.523861  16818.739057  22275.292683    746.714372
PC16  -7028.340886  37013.322501  19276.525919   -841.108350
PC19 -10012.583833 -18679.721494 -18134.043310    837.011816
PC20   9348.148731 -13025.777407 -22816.618653   -914.551873
PC21 -24121.505209   -778.220136  14057.676452   -940.786492
PC22 -24151.144999 -13736.392092  -2787.373419   -956.079743
PC23  17042.747050   6702.840739 -21050.891872   -908.741546
PC24 -18500.393524  19281.679430  -8014.398174   -852.827738
PC25    112.389369  18308.548250 -21059.570119   -916.155331
PC26 -24619.456202  10076.857303   8370.234547    906.252772
PC27  15425.716427  -4901.188231  22708.709873    532.610369
PC28  13617.034954  15988.339206  18374.013134    -73.758560
PC29  -4872.853974 -27281.216866  -3265.948717    393.056336
PC30   7659.197053 -22798.786008  14124.152830    467.187347
PC32  24108.355228    610.088982 -14008.279762   -932.951422
PC33   9961.982932  18650.972129  18211.340082   -938.139358
PC34  -7313.221376  23297.979289 -13544.465392   -672.171783
PC35 -14119.142143 -15799.116449 -18149.679075   -278.151269
PC36    696.465025 -18459.315374  20940.383973   -726.775553
PC37  24834.149502  -8857.096788  -9147.499047   -891.932969
PC38 -20166.253731  33174.222472  16356.244522    149.105583
PC39  -2751.455831  38437.033377  17292.529035     31.116922
PC40  -5087.219718  21978.138920 -35591.741178    161.527816
PC41  24017.789156  13864.841688   3164.329031   -944.481149
PC42 -10182.726956  12662.013632  22737.862490   -915.169736
PC43   4409.568220  27432.991022   2732.924097   -732.889568
PC44 -15428.251326   5254.067082 -22666.258160    190.860987
PC45 -17071.091517  -6496.942987  21097.367214    441.685988
PC46  17818.783887 -19559.985080   8924.973211    268.310817
PC60   7247.243367  41532.641886   -740.318840      0.521487
PE01  25178.845329 -10645.806136  11353.428630  -1109.016226
PE02 -25089.649301  10715.483642 -11470.817276    219.469894
PE03 -14185.678849   9601.733035  24145.692472   -431.543556
PE04  -2062.016367 -23634.502962 -17691.372500   -772.161966
PE05 -22329.979673 -10271.257287  16505.671968   -280.519506
PE07  17362.102320  23955.767076    692.463722   -538.367710
PE08   2522.767125  23682.967255  17574.697975   6001.203002
PE09 -17603.688318 -23803.321760   -500.949420   5665.874724
PE11  -6596.561170 -19792.889980 -20998.737988   5973.068010
PE12   8169.966138 -27995.806522  -4995.129277   5207.791020
PE13   6277.127237  20113.516558  20796.070467    416.474564
PE14 -21742.073120   -358.671341 -24237.722433  -1433.035135
PE15  -8074.050483  28035.840556   5035.137243    813.970037
PE18  14462.780137  -3967.591548  18075.154621  -1568.642015
PE19  15561.500197  -7338.741683 -24074.790837    278.348403
PE21  28820.111965   1065.344438  -6671.966211   -665.235472
PE24 -15049.779642 -13131.830105  21824.898813   -903.240953
PE25 -28769.890449  -1197.625370   6858.374405   -534.003763
PE26  17315.132015   -398.455013  24004.100127   1803.988576
PE27  15925.946853  12672.688936 -21494.573425    -33.646056
PE30  -7378.912059  16718.652617 -23293.433683   2940.800033
PE31   6246.437826 -16758.591793  23590.621124   -481.222288
PE33  17649.199715 -19429.612478  13669.930335   -468.665383
PE36 -16918.446867   -342.107343 -24287.026481   -207.886696
PG01  13836.283022 -22373.285197  -2071.336137    687.392609
PG02 -18100.968989   7084.828785 -17471.343280   -604.703876
PG03  11897.751441 -12893.793770 -19988.913824   -165.576288
PG04   4556.856153 -19597.819358 -17301.073262   -196.499754
PG05 -24326.778759   5612.192537   9182.378231    -42.112677
PG06 -13565.662496  -6031.823641 -21969.906072     16.362967
PG07   2906.776097 -22154.150276  14320.853247    152.495416
PG08  10898.004927 -11186.233475  21431.821420    -21.432438
PG09  -5210.963897 -24455.415665  -8984.557766   -345.827166
PG10  18530.952490  11786.208342  15242.526409   -123.136783
PG12 -14702.306160  11137.157719 -19313.288110    -41.889962
PG13 -15133.617681   1696.694474  21639.641288    132.773724
PG14 -17546.183463 -12865.007480  15245.645770     84.993181
PG15 -10063.204907  12823.905094  20555.868690   -148.997700
PG16  26172.554063    490.000761   5516.117974   -326.119232
PG17 -13259.483202 -22176.188623  -5715.144310    443.326306
PG18   -643.289614  20655.279384  16638.267302    350.230406
PG19 -15964.476394 -15988.488453 -14341.617577      0.797969
PG20 -16806.981239  12856.805065  15818.615040    522.128590
PG21  16946.344156 -18970.809923   7402.198676    118.536726
PG22  20501.861313 -10211.958448 -13089.790613   -612.828511
PG23   7110.978571  14818.360789  20853.039423    106.185251
PG24 -15289.099551  21120.717558   3538.981343     81.195278
PG25   -677.070563  15319.718560 -21952.580271    138.286345
PG26  26059.562525   3925.393952  -4377.708711     86.076657
PG27  16287.181325   1259.452805  20843.904307   -131.068847
PG28 -21345.467432 -11378.706125  11300.824339    570.383293
PG29   3213.835727  24693.813455  -9218.363846   -348.053041
PG30  -8377.165058 -14409.889861  20695.550253   -426.825240
PG31  16000.785619   3241.408268 -21113.532595   -117.623899
PG32  15918.865737  19852.390227  -7798.825862     21.100598
PJ01 -27318.152527  20505.228088  29760.466035   -379.812907
PJ02 -34301.986956  18606.875888 -11466.262518      0.057957
PJ03 -20325.840340  28839.623157 -18507.721676     -5.597447
PJ07 -25360.135991  33688.572220     25.645626      0.001923
PR01  -4975.163984  10025.641575  22928.078423     79.559540
PR02  13691.462210  17590.245932  12501.047201    478.847864
PR03  21435.403815  13063.076323  -4629.064141     36.059959
PR04  16895.491251   1396.875043 -19028.049492     87.059462
PR05   3034.280043 -11053.611277 -22768.981985     71.857621
PR07 -21464.407619 -12639.355388   5438.337873    -42.451366
PR08 -16899.050308  -1173.964367  19124.388920    -59.006219
PR09  -3317.692705 -10846.149886  22860.631899     -6.834948
PR11 -23522.204342   9654.053067   2139.551480     -4.558220
PR12 -14656.526177  14362.628769 -15114.511895    229.403493
PR13   2455.164524  10911.539232 -22941.954004    -54.811152
PR14  18806.952568    718.916714 -17198.785824     64.337050
PR15  23598.029342  -9547.537786  -1595.451426    103.817401
PR16  13515.228557 -14844.625940  15793.654687    -15.137528
PR17   8815.134934   9886.769792  21795.367618    424.567948
PR18  10764.510104  -8472.280433  21513.054468     76.743518
PR19   7933.849554 -21847.482539  10502.076865   -143.933796
PR20   -700.714078 -23666.531204  -9427.352870    -49.195555
PR21  -9027.668650  -8700.471340 -22222.620075   -209.372720
PR22 -10716.594244   9679.716065 -21073.134318   -112.980733
PR24   1615.505318  23404.316667  10016.856980     42.886268
EOF
